#aV2014  9 26  0  0  0.00000000     288 DD+AD WGS84 FIT  NGA
## 1811 432000.00000000   300.00000000 56926 0.0000000000000
+   31     1  2  4  5  6  7  8  9 10 11 12 13 14 15 16 17 18
+         19 20 21 22 23 24 25 26 27 28 29 30 31 32  0  0  0
+          0  0  0  0  0  0  0  0  0  0  0  0  0  0  0  0  0
+          0  0  0  0  0  0  0  0  0  0  0  0  0  0  0  0  0
+          0  0  0  0  0  0  0  0  0  0  0  0  0  0  0  0  0
++         2  2  2  2  2  2  2  2  2  2  2  2  2  2  2  2  2
++         2  2  2  2  2  2  2  2  2  2  2  2  2  2  0  0  0
++         0  0  0  0  0  0  0  0  0  0  0  0  0  0  0  0  0
++         0  0  0  0  0  0  0  0  0  0  0  0  0  0  0  0  0
++         0  0  0  0  0  0  0  0  0  0  0  0  0  0  0  0  0
%c cc cc ccc ccc cccc cccc cccc cccc ccccc ccccc ccccc ccccc
%c cc cc ccc ccc cccc cccc cccc cccc ccccc ccccc ccccc ccccc
%f  0.0000000  0.000000000  0.00000000000  0.000000000000000
%f  0.0000000  0.000000000  0.00000000000  0.000000000000000
%i    0    0    0    0      0      0      0      0         0
%i    0    0    0    0      0      0      0      0         0
/*      NGA, ST. LOUIS,MO.                                  
/*   EPHEMERIS COMPUTED FROM  1 DAYS OF DATA                
/*   EPOCHA SMOOTHER                                       
/* CCCCCCCCCCCCCCCCCCCCCCCCCCCCCCCCCCCCCCCCCCCCCCCCCCCCCCCCC
*  2014  9 26  6 30  0.00000000
P  1 -22686.968213 -12760.922803   5639.360683     21.707977                    
V  1  -4065.982584  -6469.092551 -30586.566043      0.005001                    
P  2   8697.657023  20306.067198  15395.692446    520.625259                    
V  2 -16429.819233  -9496.520370  21777.631729      0.021971                    
P  4 -23182.521561  -8973.507358   9330.326471     -1.022703                    
V  4  -7947.672967  -9843.566113 -27987.558299     -0.003265                    
P  5   2902.685191  24922.122639  -8482.051087   -335.852013                    
V  5  -4481.389808  10291.086643  29018.987221      0.038977                    
P  6  -4383.354875  15328.536833  21229.074679     -3.686679                    
V  6 -21769.055255 -15965.809764   7014.663526      0.014922                    
P  7 -20806.705836  -2482.300216 -16440.286675    395.726540                    
V  7 -15290.760486 -14288.169005  21041.263352      0.041127                    
P  8 -21406.514297  -9748.366703 -12717.809354     15.667528                    
V  8 -10736.114056 -12163.677961  26367.121709      0.001166                    
P  9 -25234.585441   6341.720513   5387.158008     16.940401                    
V  9   5256.691946  -5167.822269  30720.261916     -0.032452                    
P 10  -8818.299685  23618.698414   7271.572237   -143.366132                    
V 10  -2155.994230 -10262.145749  29721.483861     -0.014441                    
P 11 -23000.402028 -12542.603175  -5420.829964   -524.088193                    
V 11   7461.598131  -2284.354617 -28987.252305     -0.028716                    
P 12  11017.796851  13448.637766  20066.015187    234.593185                    
V 12  -5196.754870  24991.045255 -13636.971925      0.026615                    
P 13 -25945.780994   5215.256515   3219.115449    -45.216171                    
V 13   3474.857286  -3242.917894  31617.006103     -0.036245                    
P 14  19016.822925 -14535.551753  11582.852880    131.285654                    
V 14  14378.819625  -2311.379317 -27200.894398     -0.036665                    
P 15  17162.474152   7542.009037 -18986.739225   -205.053141                    
V 15 -21165.352536  11354.577486 -14362.125946     -0.022305                    
P 16  -1101.656348 -24808.126055  -8957.015468   -192.344770                    
V 16   4177.246986 -10762.299210  29825.818933      0.025794                    
P 17 -19136.014920  14841.003123  10900.364667   -126.537815                    
V 17 -13498.610394   2400.359954 -27860.063244     -0.026786                    
P 18  15270.907864 -10468.808238 -18467.224769    347.325376                    
V 18   -880.721381  24725.328345 -14702.542495      0.024644                    
P 19 -12910.618424 -11013.425547 -20704.941273   -480.550978                    
V 19  24484.332541  -8121.175113 -10597.074998     -0.018603                    
P 20 -15013.352928  -6944.812351  20598.608231    238.218976                    
V 20   2688.701192 -26595.019733  -6871.858910      0.043811                    
P 21  18459.495715  -3080.884406 -18350.232204   -386.068444                    
V 21  18570.853211  16250.299481  14988.966096     -0.020899                    
P 22  10272.531216 -22223.847230  -9875.954555    271.355008                    
V 22   2076.426947  13331.835888 -27408.614385      0.033756                    
P 23 -22555.725317  -2006.852458  14345.864886    -55.200631                    
V 23  15815.585047  -8535.892718  23461.763411     -0.028926                    
P 24  22005.533991  14842.234343   1989.131987    -35.814083                    
V 24    292.840321   3829.741998 -31439.464069     -0.005687                    
P 25  14928.310622   -288.406598  21879.808968     20.376514                    
V 25  -3435.481019  27717.752723   2828.646377     -0.011526                    
P 26   4254.137535  14638.749747 -22407.242516    -67.821612                    
V 26 -25757.409636   7544.478380    314.859360     -0.129716                    
P 27  -1279.880109 -15589.827842 -21473.146021     17.450215                    
V 27  25358.392141  -9924.222991   5763.910843      0.029983                    
P 28 -12626.348376  18874.587957 -13058.477990    386.990982                    
V 28   1701.808861 -17614.019702 -26032.956422      0.027446                    
P 29  25408.970240  -4234.081965   6415.749814    562.807095                    
V 29  -6852.014426   4980.837540  30586.201010      0.024318                    
P 30 -13936.966839   7583.953741 -21306.689334    -66.219817                    
V 30 -19687.662945 -18567.159252   6219.073912     -0.041565                    
P 31   2943.564691 -16002.173978  21077.995051    331.275824                    
V 31  20909.237648  16201.089318   9752.305210     -0.004266                    
P 32  -6799.566076 -20761.844816  15502.647224   -331.618179                    
V 32   6062.160573 -18577.084036 -21719.354475      0.087087                    
EOF
